start=new Date('2022-06-08T00:00:00.000Z').valueOf();
sats=[{"REF_FRAME":"TEME","COUNTRY_CODE":"US","MEAN_MOTION":"15.06405075","PERIAPSIS":"546.018","APOAPSIS":"548.378","BSTAR":"-0.00000003150300","CLASSIFICATION_TYPE":"U","MEAN_ANOMALY":"278.4300","REV_AT_EPOCH":"6188","MEAN_MOTION_DOT":"-0.00000282","INCLINATION":"53.0557","TLE_LINE2":"2 48397  53.0557  16.2569 0001704  81.6882 278.4300 15.06405075 61882","LAUNCH_DATE":"2021-05-04","SEMIMAJOR_AXIS":"6925.333","EPHEMERIS_TYPE":"0","TLE_LINE1":"1 48397U 21038AW  22158.69632465 -.00000282  00000-0 -31503-7 0  9997","ARG_OF_PERICENTER":"81.6882","CENTER_NAME":"EARTH","DECAY_DATE":null,"PERIOD":"95.592","NORAD_CAT_ID":"48397","ELEMENT_SET_NO":"999","ECCENTRICITY":"0.00017040","TIME_SYSTEM":"UTC","RCS_SIZE":"LARGE","MEAN_MOTION_DDOT":"0.0000000000000","OBJECT_ID":"2021-038AW","GP_ID":"205594732","FILE":"3485136","EPOCH":"2022-06-07T16:42:42.449760","RA_OF_ASC_NODE":"16.2569","MEAN_ELEMENT_THEORY":"SGP4","OBJECT_TYPE":"PAYLOAD","SITE":"AFETR","OBJECT_NAME":"STARLINK-2590"},{"OBJECT_ID":"2021-038AX","MEAN_MOTION_DDOT":"0.0000000000000","RCS_SIZE":"LARGE","TIME_SYSTEM":"UTC","ELEMENT_SET_NO":"999","ECCENTRICITY":"0.00016290","OBJECT_NAME":"STARLINK-2588","OBJECT_TYPE":"PAYLOAD","SITE":"AFETR","MEAN_ELEMENT_THEORY":"SGP4","RA_OF_ASC_NODE":"15.3748","EPOCH":"2022-06-07T21:24:01.232352","FILE":"3485136","GP_ID":"205595482","MEAN_MOTION_DOT":"0.00000893","REV_AT_EPOCH":"6191","BSTAR":"0.00007882800000","MEAN_ANOMALY":"303.7838","CLASSIFICATION_TYPE":"U","APOAPSIS":"548.360","PERIAPSIS":"546.104","MEAN_MOTION":"15.06393891","COUNTRY_CODE":"US","REF_FRAME":"TEME","NORAD_CAT_ID":"48398","PERIOD":"95.593","DECAY_DATE":null,"CENTER_NAME":"EARTH","TLE_LINE1":"1 48398U 21038AX  22158.89168093  .00000893  00000-0  78828-4 0  9995","ARG_OF_PERICENTER":"56.3307","LAUNCH_DATE":"2021-05-04","SEMIMAJOR_AXIS":"6925.367","EPHEMERIS_TYPE":"0","TLE_LINE2":"2 48398  53.0558  15.3748 0001629  56.3307 303.7838 15.06393891 61914","INCLINATION":"53.0558"},{"PERIAPSIS":"546.104","COUNTRY_CODE":"US","REF_FRAME":"TEME","MEAN_MOTION":"15.06399770","APOAPSIS":"548.324","REV_AT_EPOCH":"6189","MEAN_MOTION_DOT":"0.00000653","MEAN_ANOMALY":"296.9984","BSTAR":"0.00006271200000","CLASSIFICATION_TYPE":"U","SEMIMAJOR_AXIS":"6925.349","LAUNCH_DATE":"2021-05-04","EPHEMERIS_TYPE":"0","TLE_LINE2":"2 48399  53.0555  15.6970 0001603  63.1169 296.9984 15.06399770 61890","INCLINATION":"53.0555","DECAY_DATE":null,"NORAD_CAT_ID":"48399","PERIOD":"95.592","ARG_OF_PERICENTER":"63.1169","TLE_LINE1":"1 48399U 21038AY  22158.82164554  .00000653  00000-0  62712-4 0  9996","CENTER_NAME":"EARTH","TIME_SYSTEM":"UTC","ECCENTRICITY":"0.00016030","ELEMENT_SET_NO":"999","MEAN_MOTION_DDOT":"0.0000000000000","OBJECT_ID":"2021-038AY","RCS_SIZE":"LARGE","FILE":"3485136","GP_ID":"205595227","OBJECT_NAME":"STARLINK-2587","SITE":"AFETR","OBJECT_TYPE":"PAYLOAD","EPOCH":"2022-06-07T19:43:10.174656","MEAN_ELEMENT_THEORY":"SGP4","RA_OF_ASC_NODE":"15.6970"},{"INCLINATION":"53.0556","TLE_LINE2":"2 48400  53.0556  15.4161 0001847  62.7207 297.3970 15.06399237 60697","SEMIMAJOR_AXIS":"6925.351","LAUNCH_DATE":"2021-05-04","EPHEMERIS_TYPE":"0","TLE_LINE1":"1 48400U 21038AZ  22158.88430576  .00000688  00000-0  65111-4 0  9999","ARG_OF_PERICENTER":"62.7207","CENTER_NAME":"EARTH","DECAY_DATE":null,"PERIOD":"95.592","NORAD_CAT_ID":"48400","REF_FRAME":"TEME","COUNTRY_CODE":"US","MEAN_MOTION":"15.06399237","PERIAPSIS":"545.937","APOAPSIS":"548.495","CLASSIFICATION_TYPE":"U","BSTAR":"0.00006511100000","MEAN_ANOMALY":"297.3970","MEAN_MOTION_DOT":"0.00000688","REV_AT_EPOCH":"6069","GP_ID":"205593983","FILE":"3485136","EPOCH":"2022-06-07T21:13:24.017664","RA_OF_ASC_NODE":"15.4161","MEAN_ELEMENT_THEORY":"SGP4","OBJECT_TYPE":"PAYLOAD","SITE":"AFETR","OBJECT_NAME":"STARLINK-2576","ECCENTRICITY":"0.00018470","ELEMENT_SET_NO":"999","TIME_SYSTEM":"UTC","RCS_SIZE":"LARGE","MEAN_MOTION_DDOT":"0.0000000000000","OBJECT_ID":"2021-038AZ"},{"LAUNCH_DATE":"2021-05-04","SEMIMAJOR_AXIS":"6925.327","EPHEMERIS_TYPE":"0","TLE_LINE2":"2 48401  53.0548  15.5560 0001869  60.6761 299.4415 15.06407019 60683","INCLINATION":"53.0548","NORAD_CAT_ID":"48401","PERIOD":"95.592","DECAY_DATE":null,"CENTER_NAME":"EARTH","ARG_OF_PERICENTER":"60.6761","TLE_LINE1":"1 48401U 21038BA  22158.85482106  .00003382  00000-0  24580-3 0  9991","PERIAPSIS":"545.898","MEAN_MOTION":"15.06407019","COUNTRY_CODE":"US","REF_FRAME":"TEME","MEAN_MOTION_DOT":"0.00003382","REV_AT_EPOCH":"6068","BSTAR":"0.00024580000000","MEAN_ANOMALY":"299.4415","CLASSIFICATION_TYPE":"U","APOAPSIS":"548.486","FILE":"3485136","GP_ID":"205594233","OBJECT_NAME":"STARLINK-2571","SITE":"AFETR","OBJECT_TYPE":"PAYLOAD","MEAN_ELEMENT_THEORY":"SGP4","RA_OF_ASC_NODE":"15.5560","EPOCH":"2022-06-07T20:30:56.539584","TIME_SYSTEM":"UTC","ECCENTRICITY":"0.00018690","ELEMENT_SET_NO":"999","OBJECT_ID":"2021-038BA","MEAN_MOTION_DDOT":"0.0000000000000","RCS_SIZE":"LARGE"},{"PERIAPSIS":"545.976","COUNTRY_CODE":"US","REF_FRAME":"TEME","MEAN_MOTION":"15.06399872","APOAPSIS":"548.452","MEAN_MOTION_DOT":"-0.00000359","REV_AT_EPOCH":"6069","MEAN_ANOMALY":"287.4934","BSTAR":"-0.00000520140000","CLASSIFICATION_TYPE":"U","LAUNCH_DATE":"2021-05-04","SEMIMAJOR_AXIS":"6925.349","EPHEMERIS_TYPE":"0","TLE_LINE2":"2 48402  53.0563  15.4305 0001787  72.6250 287.4934 15.06399872 60693","INCLINATION":"53.0563","DECAY_DATE":null,"NORAD_CAT_ID":"48402","PERIOD":"95.592","ARG_OF_PERICENTER":"72.6250","TLE_LINE1":"1 48402U 21038BB  22158.88061996 -.00000359  00000-0 -52014-5 0  9993","CENTER_NAME":"EARTH","TIME_SYSTEM":"UTC","ECCENTRICITY":"0.00017870","ELEMENT_SET_NO":"999","MEAN_MOTION_DDOT":"0.0000000000000","OBJECT_ID":"2021-038BB","RCS_SIZE":"LARGE","FILE":"3485136","GP_ID":"205594982","OBJECT_NAME":"STARLINK-2560","SITE":"AFETR","OBJECT_TYPE":"PAYLOAD","EPOCH":"2022-06-07T21:08:05.564544","MEAN_ELEMENT_THEORY":"SGP4","RA_OF_ASC_NODE":"15.4305"},{"COUNTRY_CODE":"US","REF_FRAME":"TEME","MEAN_MOTION":"15.06400775","PERIAPSIS":"546.027","APOAPSIS":"548.395","MEAN_MOTION_DOT":"-0.00000799","REV_AT_EPOCH":"6069","CLASSIFICATION_TYPE":"U","BSTAR":"-0.00003475900000","MEAN_ANOMALY":"291.8414","INCLINATION":"53.0575","SEMIMAJOR_AXIS":"6925.346","LAUNCH_DATE":"2021-05-04","EPHEMERIS_TYPE":"0","TLE_LINE2":"2 48403  53.0575  15.4422 0001710  68.2757 291.8414 15.06400775 60693","TLE_LINE1":"1 48403U 21038BC  22158.87693751 -.00000799  00000-0 -34759-4 0  9996","ARG_OF_PERICENTER":"68.2757","CENTER_NAME":"EARTH","DECAY_DATE":null,"NORAD_CAT_ID":"48403","PERIOD":"95.592","ELEMENT_SET_NO":"999","ECCENTRICITY":"0.00017100","TIME_SYSTEM":"UTC","RCS_SIZE":"LARGE","MEAN_MOTION_DDOT":"0.0000000000000","OBJECT_ID":"2021-038BC","GP_ID":"205595728","FILE":"3485136","EPOCH":"2022-06-07T21:02:47.400864","MEAN_ELEMENT_THEORY":"SGP4","RA_OF_ASC_NODE":"15.4422","OBJECT_NAME":"STARLINK-2561","OBJECT_TYPE":"PAYLOAD","SITE":"AFETR"},{"MEAN_ELEMENT_THEORY":"SGP4","RA_OF_ASC_NODE":"15.4640","EPOCH":"2022-06-07T20:57:28.738656","OBJECT_NAME":"STARLINK-2593","SITE":"AFETR","OBJECT_TYPE":"PAYLOAD","GP_ID":"205572764","FILE":"3485113","RCS_SIZE":"LARGE","OBJECT_ID":"2021-038BD","MEAN_MOTION_DDOT":"0.0000000000000","ELEMENT_SET_NO":"999","ECCENTRICITY":"0.00017850","TIME_SYSTEM":"UTC","CENTER_NAME":"EARTH","ARG_OF_PERICENTER":"73.7234","TLE_LINE1":"1 48404U 21038BD  22158.87324929  .00000566  00000-0  56874-4 0  9997","NORAD_CAT_ID":"48404","PERIOD":"95.592","DECAY_DATE":null,"INCLINATION":"53.0563","LAUNCH_DATE":"2021-05-04","SEMIMAJOR_AXIS":"6925.365","EPHEMERIS_TYPE":"0","TLE_LINE2":"2 48404  53.0563  15.4640 0001785  73.7234 286.3952 15.06394563 61285","REV_AT_EPOCH":"6128","MEAN_MOTION_DOT":"0.00000566","BSTAR":"0.00005687400000","MEAN_ANOMALY":"286.3952","CLASSIFICATION_TYPE":"U","APOAPSIS":"548.466","MEAN_MOTION":"15.06394563","COUNTRY_CODE":"US","REF_FRAME":"TEME","PERIAPSIS":"545.994"},{"TLE_LINE2":"2 48405  53.0550  15.4718 0001878  61.6305 298.4873 15.06399417 60699","LAUNCH_DATE":"2021-05-04","SEMIMAJOR_AXIS":"6925.350","EPHEMERIS_TYPE":"0","INCLINATION":"53.0550","DECAY_DATE":null,"PERIOD":"95.592","NORAD_CAT_ID":"48405","ARG_OF_PERICENTER":"61.6305","TLE_LINE1":"1 48405U 21038BE  22158.86956308 -.00000656  00000-0 -25130-4 0  9992","CENTER_NAME":"EARTH","PERIAPSIS":"545.915","REF_FRAME":"TEME","COUNTRY_CODE":"US","MEAN_MOTION":"15.06399417","APOAPSIS":"548.516","BSTAR":"-0.00002513000000","MEAN_ANOMALY":"298.4873","CLASSIFICATION_TYPE":"U","MEAN_MOTION_DOT":"-0.00000656","REV_AT_EPOCH":"6069","FILE":"3485136","GP_ID":"205594733","OBJECT_TYPE":"PAYLOAD","SITE":"AFETR","OBJECT_NAME":"STARLINK-2570","EPOCH":"2022-06-07T20:52:10.250112","RA_OF_ASC_NODE":"15.4718","MEAN_ELEMENT_THEORY":"SGP4","TIME_SYSTEM":"UTC","ECCENTRICITY":"0.00018780","ELEMENT_SET_NO":"999","MEAN_MOTION_DDOT":"0.0000000000000","OBJECT_ID":"2021-038BE","RCS_SIZE":"LARGE"},{"EPOCH":"2022-06-07T20:46:52.198752","MEAN_ELEMENT_THEORY":"SGP4","RA_OF_ASC_NODE":"15.4987","OBJECT_NAME":"STARLINK-2568","OBJECT_TYPE":"PAYLOAD","SITE":"AFETR","GP_ID":"205572771","FILE":"3485114","RCS_SIZE":"LARGE","MEAN_MOTION_DDOT":"0.0000000000000","OBJECT_ID":"2021-038BF","ELEMENT_SET_NO":"999","ECCENTRICITY":"0.00019840","TIME_SYSTEM":"UTC","TLE_LINE1":"1 48406U 21038BF  22158.86588193  .00000435  00000-0  48131-4 0  9995","ARG_OF_PERICENTER":"57.2605","CENTER_NAME":"EARTH","DECAY_DATE":null,"NORAD_CAT_ID":"48406","PERIOD":"95.592","INCLINATION":"53.0562","EPHEMERIS_TYPE":"0","LAUNCH_DATE":"2021-05-04","SEMIMAJOR_AXIS":"6925.363","TLE_LINE2":"2 48406  53.0562  15.4987 0001984  57.2605 302.8575 15.06395273 61284","APOAPSIS":"548.602","MEAN_MOTION_DOT":"0.00000435","REV_AT_EPOCH":"6128","CLASSIFICATION_TYPE":"U","BSTAR":"0.00004813100000","MEAN_ANOMALY":"302.8575","COUNTRY_CODE":"US","REF_FRAME":"TEME","MEAN_MOTION":"15.06395273","PERIAPSIS":"545.854"}];
